{"type": "FeatureCollection", "features": [ {"type": "Feature", "properties": {"norad_id": 66847, "name": "STARLINK-36061", "group": "last-30-days", "lat": 15.44883854574933, "lon": -172.96119672984597, "alt_km": 401.5973309553301, "timestamp": "2025-12-18T23:35:47.782249+00:00", "meta": {"OBJECT_NAME": "STARLINK-36061", "OBJECT_ID": "2025-280AC", "EPOCH": "2025-12-18T14:00:03.000384", "MEAN_MOTION": 15.57281845, "ECCENTRICITY": 0.00034665, "INCLINATION": 69.9996, "RA_OF_ASC_NODE": 182.3625, "ARG_OF_PERICENTER": 265.5521, "MEAN_ANOMALY": 31.4448, "EPHEMERIS_TYPE": 0, "CLASSIFICATION_TYPE": "U", "NORAD_CAT_ID": 66847, "ELEMENT_SET_NO": 999, "REV_AT_EPOCH": 378, "BSTAR": -0.031027671, "MEAN_MOTION_DOT": -0.01995651, "MEAN_MOTION_DDOT": 0}, "tle": {"line1": "1 66847U 25280AC  25352.58336806 -.01995651  00000+0 -31028-1 0  9996", "line2": "2 66847  69.9996 182.3625 0003466 265.5521  31.4448 15.57281845  3781"}}, "geometry": {"type": "Point", "coordinates": [-172.96119672984597, 15.44883854574933]}}, {"type": "Feature", "properties": {"norad_id": 66848, "name": "STARLINK-36091", "group": "last-30-days", "lat": 29.165977037110885, "lon": -132.71534709293698, "alt_km": 340.99185827825295, "timestamp": "2025-12-18T23:35:47.782260+00:00", "meta": {"OBJECT_NAME": "STARLINK-36091", "OBJECT_ID": "2025-281A", "EPOCH": "2025-12-18T14:00:03.000384", "MEAN_MOTION": 15.75675303, "ECCENTRICITY": 0.00015464, "INCLINATION": 43.0007, "RA_OF_ASC_NODE": 86.504, "ARG_OF_PERICENTER": 271.4456, "MEAN_ANOMALY": 112.6616, "EPHEMERIS_TYPE": 0, "CLASSIFICATION_TYPE": "U", "NORAD_CAT_ID": 66848, "ELEMENT_SET_NO": 999, "REV_AT_EPOCH": 233, "BSTAR": -0.0059269287, "MEAN_MOTION_DOT": -0.00847906, "MEAN_MOTION_DDOT": 0}, "tle": {"line1": "1 66848U 25281A   25352.58336806 -.00847906  00000+0 -59269-2 0  9994", "line2": "2 66848  43.0007  86.5040 0001546 271.4456 112.6616 15.75675303  2339"}}, "geometry": {"type": "Point", "coordinates": [-132.71534709293698, 29.165977037110885]}}, {"type": "Feature", "properties": {"norad_id": 66849, "name": "STARLINK-36102", "group": "last-30-days", "lat": 28.103046659797187, "lon": -130.89313329234838, "alt_km": 341.11098778881296, "timestamp": "2025-12-18T23:35:47.782272+00:00", "meta": {"OBJECT_NAME": "STARLINK-36102", "OBJECT_ID": "2025-281B", "EPOCH": "2025-12-18T14:00:03.000384", "MEAN_MOTION": 15.7559172, "ECCENTRICITY": 0.00015168, "INCLINATION": 43.0006, "RA_OF_ASC_NODE": 86.4986, "ARG_OF_PERICENTER": 271.0395, "MEAN_ANOMALY": 115.0491, "EPHEMERIS_TYPE": 0, "CLASSIFICATION_TYPE": "U", "NORAD_CAT_ID": 66849, "ELEMENT_SET_NO": 999, "REV_AT_EPOCH": 233, "BSTAR": -0.0052554469, "MEAN_MOTION_DOT": -0.00757267, "MEAN_MOTION_DDOT": 0}, "tle": {"line1": "1 66849U 25281B   25352.58336806 -.00757267  00000+0 -52554-2 0  9995", "line2": "2 66849  43.0006  86.4986 0001516 271.0395 115.0491 15.75591720  2330"}}, "geometry": {"type": "Point", "coordinates": [-130.89313329234838, 28.103046659797187]}}, {"type": "Feature", "properties": {"norad_id": 66850, "name": "STARLINK-36105", "group": "last-30-days", "lat": 27.03900391498018, "lon": -129.14299954719704, "alt_km": 341.1108016433309, "timestamp": "2025-12-18T23:35:47.782283+00:00", "meta": {"OBJECT_NAME": "STARLINK-36105", "OBJECT_ID": "2025-281C", "EPOCH": "2025-12-18T14:00:03.000384", "MEAN_MOTION": 15.75379077, "ECCENTRICITY": 0.00015534, "INCLINATION": 43.0007, "RA_OF_ASC_NODE": 86.4934, "ARG_OF_PERICENTER": 258.3059, "MEAN_ANOMALY": 129.832, "EPHEMERIS_TYPE": 0, "CLASSIFICATION_TYPE": "U", "NORAD_CAT_ID": 66850, "ELEMENT_SET_NO": 999, "REV_AT_EPOCH": 233, "BSTAR": -0.0036793677, "MEAN_MOTION_DOT": -0.00539016, "MEAN_MOTION_DDOT": 0}, "tle": {"line1": "1 66850U 25281C   25352.58336806 -.00539016  00000+0 -36794-2 0  9995", "line2": "2 66850  43.0007  86.4934 0001553 258.3059 129.8320 15.75379077  2335"}}, "geometry": {"type": "Point", "coordinates": [-129.14299954719704, 27.03900391498018]}}, {"type": "Feature", "properties": {"norad_id": 66851, "name": "STARLINK-36094", "group": "last-30-days", "lat": 25.91907296776437, "lon": -127.37285787951794, "alt_km": 341.40110614249625, "timestamp": "2025-12-18T23:35:47.782293+00:00", "meta": {"OBJECT_NAME": "STARLINK-36094", "OBJECT_ID": "2025-281D", "EPOCH": "2025-12-18T14:00:03.000384", "MEAN_MOTION": 15.75309767, "ECCENTRICITY": 0.00015321, "INCLINATION": 43.0005, "RA_OF_ASC_NODE": 86.4885, "ARG_OF_PERICENTER": 275.2715, "MEAN_ANOMALY": 114.8274, "EPHEMERIS_TYPE": 0, "CLASSIFICATION_TYPE": "U", "NORAD_CAT_ID": 66851, "ELEMENT_SET_NO": 999, "REV_AT_EPOCH": 233, "BSTAR": -0.002817898, "MEAN_MOTION_DOT": -0.00417542, "MEAN_MOTION_DDOT": 0}, "tle": {"line1": "1 66851U 25281D   25352.58336806 -.00417542  00000+0 -28179-2 0  9993", "line2": "2 66851  43.0005  86.4885 0001532 275.2715 114.8274 15.75309767  2334"}}, "geometry": {"type": "Point", "coordinates": [-127.37285787951794, 25.91907296776437]}}, {"type": "Feature", "properties": {"norad_id": 66852, "name": "STARLINK-35992", "group": "last-30-days", "lat": 24.820654318405698, "lon": -125.69991169845383, "alt_km": 341.5570432692539, "timestamp": "2025-12-18T23:35:47.782303+00:00", "meta": {"OBJECT_NAME": "STARLINK-35992", "OBJECT_ID": "2025-281E", "EPOCH": "2025-12-18T14:00:03.000384", "MEAN_MOTION": 15.75194423, "ECCENTRICITY": 0.00016187, "INCLINATION": 43.0007, "RA_OF_ASC_NODE": 86.4835, "ARG_OF_PERICENTER": 268.8446, "MEAN_ANOMALY": 123.2251, "EPHEMERIS_TYPE": 0, "CLASSIFICATION_TYPE": "U", "NORAD_CAT_ID": 66852, "ELEMENT_SET_NO": 999, "REV_AT_EPOCH": 233, "BSTAR": -0.0020577345, "MEAN_MOTION_DOT": -0.00307423, "MEAN_MOTION_DDOT": 0}, "tle": {"line1": "1 66852U 25281E   25352.58336806 -.00307423  00000+0 -20577-2 0  9994", "line2": "2 66852  43.0007  86.4835 0001618 268.8446 123.2251 15.75194423  2336"}}, "geometry": {"type": "Point", "coordinates": [-125.69991169845383, 24.820654318405698]}}, {"type": "Feature", "properties": {"norad_id": 66853, "name": "STARLINK-35986", "group": "last-30-days", "lat": 23.650725015348524, "lon": -123.98001830324434, "alt_km": 341.61398762642693, "timestamp": "2025-12-18T23:35:47.782313+00:00", "meta": {"OBJECT_NAME": "STARLINK-35986", "OBJECT_ID": "2025-281F", "EPOCH": "2025-12-18T14:00:03.000384", "MEAN_MOTION": 15.7510249, "ECCENTRICITY": 0.00013299, "INCLINATION": 43.0006, "RA_OF_ASC_NODE": 86.4787, "ARG_OF_PERICENTER": 288.6894, "MEAN_ANOMALY": 105.35, "EPHEMERIS_TYPE": 0, "CLASSIFICATION_TYPE": "U", "NORAD_CAT_ID": 66853, "ELEMENT_SET_NO": 999, "REV_AT_EPOCH": 233, "BSTAR": -0.00076623824, "MEAN_MOTION_DOT": -0.00116883, "MEAN_MOTION_DDOT": 0}, "tle": {"line1": "1 66853U 25281F   25352.58336806 -.00116883  00000+0 -76624-3 0  9998", "line2": "2 66853  43.0006  86.4787 0001329 288.6894 105.3500 15.75102490  2339"}}, "geometry": {"type": "Point", "coordinates": [-123.98001830324434, 23.650725015348524]}}, {"type": "Feature", "properties": {"norad_id": 66854, "name": "STARLINK-36087", "group": "last-30-days", "lat": 22.485413057786914, "lon": -122.32389125621904, "alt_km": 341.8201308253938, "timestamp": "2025-12-18T23:35:47.782323+00:00", "meta": {"OBJECT_NAME": "STARLINK-36087", "OBJECT_ID": "2025-281G", "EPOCH": "2025-12-18T14:00:03.000384", "MEAN_MOTION": 15.75052612, "ECCENTRICITY": 0.00017677, "INCLINATION": 43.0006, "RA_OF_ASC_NODE": 86.4736, "ARG_OF_PERICENTER": 280.268, "MEAN_ANOMALY": 115.7096, "EPHEMERIS_TYPE": 0, "CLASSIFICATION_TYPE": "U", "NORAD_CAT_ID": 66854, "ELEMENT_SET_NO": 999, "REV_AT_EPOCH": 233, "BSTAR": -9.4736587e-05, "MEAN_MOTION_DOT": -0.00015013, "MEAN_MOTION_DDOT": 0}, "tle": {"line1": "1 66854U 25281G   25352.58336806 -.00015013  00000+0 -94737-4 0  9998", "line2": "2 66854  43.0006  86.4736 0001767 280.2680 115.7096 15.75052612  2336"}}, "geometry": {"type": "Point", "coordinates": [-122.32389125621904, 22.485413057786914]}}, {"type": "Feature", "properties": {"norad_id": 66855, "name": "STARLINK-36090", "group": "last-30-days", "lat": 21.29739369258307, "lon": -120.68720857458328, "alt_km": 341.5350079946529, "timestamp": "2025-12-18T23:35:47.782335+00:00", "meta": {"OBJECT_NAME": "STARLINK-36090", "OBJECT_ID": "2025-281H", "EPOCH": "2025-12-18T14:00:03.000384", "MEAN_MOTION": 15.75054144, "ECCENTRICITY": 8.812e-05, "INCLINATION": 43.0005, "RA_OF_ASC_NODE": 86.469, "ARG_OF_PERICENTER": 279.8333, "MEAN_ANOMALY": 118.061, "EPHEMERIS_TYPE": 0, "CLASSIFICATION_TYPE": "U", "NORAD_CAT_ID": 66855, "ELEMENT_SET_NO": 999, "REV_AT_EPOCH": 221, "BSTAR": -4.6558753e-05, "MEAN_MOTION_DOT": -7.626e-05, "MEAN_MOTION_DDOT": 0}, "tle": {"line1": "1 66855U 25281H   25352.58336806 -.00007626  00000+0 -46559-4 0  9999", "line2": "2 66855  43.0005  86.4690 0000881 279.8333 118.0610 15.75054144  2217"}}, "geometry": {"type": "Point", "coordinates": [-120.68720857458328, 21.29739369258307]}}, {"type": "Feature", "properties": {"norad_id": 66856, "name": "STARLINK-36072", "group": "last-30-days", "lat": 20.115243072341862, "lon": -119.10586147564828, "alt_km": 342.2224699787539, "timestamp": "2025-12-18T23:35:47.782346+00:00", "meta": {"OBJECT_NAME": "STARLINK-36072", "OBJECT_ID": "2025-281J", "EPOCH": "2025-12-18T14:00:03.000384", "MEAN_MOTION": 15.75043756, "ECCENTRICITY": 0.00018612, "INCLINATION": 43.0008, "RA_OF_ASC_NODE": 86.4636, "ARG_OF_PERICENTER": 280.3659, "MEAN_ANOMALY": 119.4539, "EPHEMERIS_TYPE": 0, "CLASSIFICATION_TYPE": "U", "NORAD_CAT_ID": 66856, "ELEMENT_SET_NO": 999, "REV_AT_EPOCH": 233, "BSTAR": -0.0001179898, "MEAN_MOTION_DOT": -0.00018567, "MEAN_MOTION_DDOT": 0}, "tle": {"line1": "1 66856U 25281J   25352.58336806 -.00018567  00000+0 -11799-3 0  9993", "line2": "2 66856  43.0008  86.4636 0001861 280.3659 119.4539 15.75043756  2333"}}, "geometry": {"type": "Point", "coordinates": [-119.10586147564828, 20.115243072341862]}}]}